{"type": "FeatureCollection", "features": [ {"type": "Feature", "properties": {"norad_id": 44476, "name": "INTELSAT 39 (IS-39)", "group": "intelsat", "lat": 0.04228489213828743, "lon": 106.13288149872483, "alt_km": 35783.33189523717, "timestamp": "2025-12-24T20:42:20.687642+00:00", "meta": {"OBJECT_NAME": "INTELSAT 39 (IS-39)", "OBJECT_ID": "2019-049B", "EPOCH": "2025-12-24T04:50:07.636128", "MEAN_MOTION": 1.00269084, "ECCENTRICITY": 0.00011052, "INCLINATION": 0.0204, "RA_OF_ASC_NODE": 11.2429, "ARG_OF_PERICENTER": 137.1016, "MEAN_ANOMALY": 79.1033, "EPHEMERIS_TYPE": 0, "CLASSIFICATION_TYPE": "U", "NORAD_CAT_ID": 44476, "ELEMENT_SET_NO": 999, "REV_AT_EPOCH": 2337, "BSTAR": 0, "MEAN_MOTION_DOT": 0, "MEAN_MOTION_DDOT": 0}, "tle": {"line1": "1 44476U 19049B   25358.20147727  .00000000  00000+0  00000+0 0  9999", "line2": "2 44476   0.0204  11.2429 0001105 137.1016  79.1033  1.00269084 23376"}}, "geometry": {"type": "Point", "coordinates": [106.13288149872483, 0.04228489213828743]}}, {"type": "Feature", "properties": {"norad_id": 46114, "name": "GALAXY 30 (G-30)", "group": "intelsat", "lat": -0.025617865517099794, "lon": -80.78852986809466, "alt_km": 35777.4147786248, "timestamp": "2025-12-24T20:42:20.687653+00:00", "meta": {"OBJECT_NAME": "GALAXY 30 (G-30)", "OBJECT_ID": "2020-056C", "EPOCH": "2025-12-24T05:57:38.851776", "MEAN_MOTION": 1.00271057, "ECCENTRICITY": 0.00021028, "INCLINATION": 0.014, "RA_OF_ASC_NODE": 325.0857, "ARG_OF_PERICENTER": 306.9957, "MEAN_ANOMALY": 145.3551, "EPHEMERIS_TYPE": 0, "CLASSIFICATION_TYPE": "U", "NORAD_CAT_ID": 46114, "ELEMENT_SET_NO": 999, "REV_AT_EPOCH": 1953, "BSTAR": 0, "MEAN_MOTION_DOT": 5.8e-07, "MEAN_MOTION_DDOT": 0}, "tle": {"line1": "1 46114U 20056C   25358.24836634  .00000058  00000+0  00000+0 0  9999", "line2": "2 46114   0.0140 325.0857 0002102 306.9957 145.3551  1.00271057 19532"}}, "geometry": {"type": "Point", "coordinates": [-80.78852986809466, -0.025617865517099794]}}, {"type": "Feature", "properties": {"norad_id": 54026, "name": "GALAXY 33 (G-33)", "group": "intelsat", "lat": -0.022399243054376017, "lon": -88.78012773999943, "alt_km": 35779.007523182016, "timestamp": "2025-12-24T20:42:20.687667+00:00", "meta": {"OBJECT_NAME": "GALAXY 33 (G-33)", "OBJECT_ID": "2022-128A", "EPOCH": "2025-12-24T04:31:51.326400", "MEAN_MOTION": 1.00272122, "ECCENTRICITY": 0.0001643, "INCLINATION": 0.0126, "RA_OF_ASC_NODE": 315.9231, "ARG_OF_PERICENTER": 309.5058, "MEAN_ANOMALY": 122.5078, "EPHEMERIS_TYPE": 0, "CLASSIFICATION_TYPE": "U", "NORAD_CAT_ID": 54026, "ELEMENT_SET_NO": 999, "REV_AT_EPOCH": 1198, "BSTAR": 0, "MEAN_MOTION_DOT": 1e-06, "MEAN_MOTION_DDOT": 0}, "tle": {"line1": "1 54026U 22128A   25358.18878850  .00000100  00000+0  00000+0 0  9999", "line2": "2 54026   0.0126 315.9231 0001643 309.5058 122.5078  1.00272122 11987"}}, "geometry": {"type": "Point", "coordinates": [-88.78012773999943, -0.022399243054376017]}}, {"type": "Feature", "properties": {"norad_id": 54027, "name": "GALAXY 34 (G-34)", "group": "intelsat", "lat": -0.042788632678065104, "lon": -84.74613424511827, "alt_km": 35778.98281835274, "timestamp": "2025-12-24T20:42:20.687682+00:00", "meta": {"OBJECT_NAME": "GALAXY 34 (G-34)", "OBJECT_ID": "2022-128B", "EPOCH": "2025-12-24T06:22:23.360160", "MEAN_MOTION": 1.00269724, "ECCENTRICITY": 0.00018252, "INCLINATION": 0.0222, "RA_OF_ASC_NODE": 355.4296, "ARG_OF_PERICENTER": 270.8964, "MEAN_ANOMALY": 153.3579, "EPHEMERIS_TYPE": 0, "CLASSIFICATION_TYPE": "U", "NORAD_CAT_ID": 54027, "ELEMENT_SET_NO": 999, "REV_AT_EPOCH": 1215, "BSTAR": 0, "MEAN_MOTION_DOT": 0, "MEAN_MOTION_DDOT": 0}, "tle": {"line1": "1 54027U 22128B   25358.26554815  .00000000  00000+0  00000+0 0  9990", "line2": "2 54027   0.0222 355.4296 0001825 270.8964 153.3579  1.00269724 12155"}}, "geometry": {"type": "Point", "coordinates": [-84.74613424511827, -0.042788632678065104]}}, {"type": "Feature", "properties": {"norad_id": 54243, "name": "GALAXY 31 (G-31)", "group": "intelsat", "lat": -0.010130916472483724, "lon": -76.79315603836616, "alt_km": 35779.90469842986, "timestamp": "2025-12-24T20:42:20.687693+00:00", "meta": {"OBJECT_NAME": "GALAXY 31 (G-31)", "OBJECT_ID": "2022-153A", "EPOCH": "2025-12-23T15:58:50.418048", "MEAN_MOTION": 1.00271329, "ECCENTRICITY": 0.00014745, "INCLINATION": 0.0283, "RA_OF_ASC_NODE": 245.972, "ARG_OF_PERICENTER": 36.0828, "MEAN_ANOMALY": 289.1035, "EPHEMERIS_TYPE": 0, "CLASSIFICATION_TYPE": "U", "NORAD_CAT_ID": 54243, "ELEMENT_SET_NO": 999, "REV_AT_EPOCH": 537, "BSTAR": 0, "MEAN_MOTION_DOT": 3.4e-07, "MEAN_MOTION_DDOT": 0}, "tle": {"line1": "1 54243U 22153A   25357.66586132  .00000034  00000+0  00000+0 0  9995", "line2": "2 54243   0.0283 245.9720 0001474  36.0828 289.1035  1.00271329  5373"}}, "geometry": {"type": "Point", "coordinates": [-76.79315603836616, -0.010130916472483724]}}, {"type": "Feature", "properties": {"norad_id": 54244, "name": "GALAXY 32 (G-32)", "group": "intelsat", "lat": -0.027960929260185695, "lon": -46.79056634390358, "alt_km": 35777.96482102314, "timestamp": "2025-12-24T20:42:20.687705+00:00", "meta": {"OBJECT_NAME": "GALAXY 32 (G-32)", "OBJECT_ID": "2022-153B", "EPOCH": "2025-12-24T00:35:10.537728", "MEAN_MOTION": 1.00272312, "ECCENTRICITY": 0.00019036, "INCLINATION": 0.0096, "RA_OF_ASC_NODE": 16.5696, "ARG_OF_PERICENTER": 300.0291, "MEAN_ANOMALY": 53.9983, "EPHEMERIS_TYPE": 0, "CLASSIFICATION_TYPE": "U", "NORAD_CAT_ID": 54244, "ELEMENT_SET_NO": 999, "REV_AT_EPOCH": 1138, "BSTAR": 0, "MEAN_MOTION_DOT": -1.53e-06, "MEAN_MOTION_DDOT": 0}, "tle": {"line1": "1 54244U 22153B   25358.02442752 -.00000153  00000+0  00000+0 0  9999", "line2": "2 54244   0.0096  16.5696 0001903 300.0291  53.9983  1.00272312 11385"}}, "geometry": {"type": "Point", "coordinates": [-46.79056634390358, -0.027960929260185695]}}, {"type": "Feature", "properties": {"norad_id": 54741, "name": "GALAXY 35 (G-35)", "group": "intelsat", "lat": -0.003606337260986836, "lon": -48.865262889477385, "alt_km": 35778.37692048453, "timestamp": "2025-12-24T20:42:20.687716+00:00", "meta": {"OBJECT_NAME": "GALAXY 35 (G-35)", "OBJECT_ID": "2022-170A", "EPOCH": "2025-12-24T05:48:32.040000", "MEAN_MOTION": 1.00271455, "ECCENTRICITY": 0.00022713, "INCLINATION": 0.0302, "RA_OF_ASC_NODE": 247.2696, "ARG_OF_PERICENTER": 28.3062, "MEAN_ANOMALY": 171.4865, "EPHEMERIS_TYPE": 0, "CLASSIFICATION_TYPE": "U", "NORAD_CAT_ID": 54741, "ELEMENT_SET_NO": 999, "REV_AT_EPOCH": 1114, "BSTAR": 0, "MEAN_MOTION_DOT": -1.41e-06, "MEAN_MOTION_DDOT": 0}, "tle": {"line1": "1 54741U 22170A   25358.24203750 -.00000141  00000+0  00000+0 0  9994", "line2": "2 54741   0.0302 247.2696 0002271  28.3062 171.4865  1.00271455 11141"}}, "geometry": {"type": "Point", "coordinates": [-48.865262889477385, -0.003606337260986836]}}, {"type": "Feature", "properties": {"norad_id": 54742, "name": "GALAXY 36 (G-36)", "group": "intelsat", "lat": -0.03033563534676219, "lon": -44.78420224093789, "alt_km": 35784.6907635253, "timestamp": "2025-12-24T20:42:20.687727+00:00", "meta": {"OBJECT_NAME": "GALAXY 36 (G-36)", "OBJECT_ID": "2022-170B", "EPOCH": "2025-12-24T02:38:43.609344", "MEAN_MOTION": 1.00272435, "ECCENTRICITY": 3.583e-05, "INCLINATION": 0.0172, "RA_OF_ASC_NODE": 70.1558, "ARG_OF_PERICENTER": 278.5007, "MEAN_ANOMALY": 54.9201, "EPHEMERIS_TYPE": 0, "CLASSIFICATION_TYPE": "U", "NORAD_CAT_ID": 54742, "ELEMENT_SET_NO": 999, "REV_AT_EPOCH": 1101, "BSTAR": 0, "MEAN_MOTION_DOT": -1.64e-06, "MEAN_MOTION_DDOT": 0}, "tle": {"line1": "1 54742U 22170B   25358.11022696 -.00000164  00000+0  00000+0 0  9994", "line2": "2 54742   0.0172  70.1558 0000358 278.5007  54.9201  1.00272435 11013"}}, "geometry": {"type": "Point", "coordinates": [-44.78420224093789, -0.03033563534676219]}}, {"type": "Feature", "properties": {"norad_id": 57493, "name": "GALAXY 37 (G-37)", "group": "intelsat", "lat": -0.03939156800213104, "lon": -82.7976733353291, "alt_km": 35777.46478399832, "timestamp": "2025-12-24T20:42:20.687739+00:00", "meta": {"OBJECT_NAME": "GALAXY 37 (G-37)", "OBJECT_ID": "2023-112A", "EPOCH": "2025-12-24T06:12:26.382816", "MEAN_MOTION": 1.00271583, "ECCENTRICITY": 0.00020392, "INCLINATION": 0.0175, "RA_OF_ASC_NODE": 10.2824, "ARG_OF_PERICENTER": 266.718, "MEAN_ANOMALY": 142.1368, "EPHEMERIS_TYPE": 0, "CLASSIFICATION_TYPE": "U", "NORAD_CAT_ID": 57493, "ELEMENT_SET_NO": 999, "REV_AT_EPOCH": 878, "BSTAR": 0, "MEAN_MOTION_DOT": 6.9e-07, "MEAN_MOTION_DDOT": 0}, "tle": {"line1": "1 57493U 23112A   25358.25863869  .00000069  00000+0  00000+0 0  9990", "line2": "2 57493   0.0175  10.2824 0002039 266.7180 142.1368  1.00271583  8789"}}, "geometry": {"type": "Point", "coordinates": [-82.7976733353291, -0.03939156800213104]}}]}